STARLINK-1148_new
1 15052C 20006J   21326.10210651  .00001124  00000-0  75280-4 0  3262
2 15052  53.0515 128.2906 0001931  75.4503 315.7196 15.06397951    12
STARLINK-1148_old
1 25052C 20006J   21325.10681421  .00001345  00000-0  90143-4 0  3257
2 25052  53.0516 132.7587 0001947  73.5792 317.1025 15.06395746    11
